{
    "links": {
        "self": "http://www.neowsapp.com/rest/v1/neo/3117436?api_key=iIulBulltgU6a56xZRHN4H3l9WmuAYTsLGpBGhQ2"
    },
    "id": "3117436",
    "neo_reference_id": "3117436",
    "name": "(2002 EW11)",
    "designation": "2002 EW11",
    "nasa_jpl_url": "http://ssd.jpl.nasa.gov/sbdb.cgi?sstr=3117436",
    "absolute_magnitude_h": 24.8,
    "estimated_diameter": {
        "kilometers": {
            "estimated_diameter_min": 0.0291443905,
            "estimated_diameter_max": 0.0651688382
        },
        "meters": {
            "estimated_diameter_min": 29.1443904535,
            "estimated_diameter_max": 65.1688382168
        },
        "miles": {
            "estimated_diameter_min": 0.018109479,
            "estimated_diameter_max": 0.0404940262
        },
        "feet": {
            "estimated_diameter_min": 95.6180819754,
            "estimated_diameter_max": 213.8085311752
        }
    },
    "is_potentially_hazardous_asteroid": false,
    "close_approach_data": [
        {
            "close_approach_date": "2000-08-07",
            "close_approach_date_full": "2000-Aug-07 05:52",
            "epoch_date_close_approach": 965627520000,
            "relative_velocity": {
                "kilometers_per_second": "18.8792505091",
                "kilometers_per_hour": "67965.301832927",
                "miles_per_hour": "42230.9954639096"
            },
            "miss_distance": {
                "astronomical": "0.2858780388",
                "lunar": "111.2065570932",
                "kilometers": "42766745.684257356",
                "miles": "26574023.5143532728"
            },
            "orbiting_body": "Earth"
        },
        {
            "close_approach_date": "2002-03-22",
            "close_approach_date_full": "2002-Mar-22 15:50",
            "epoch_date_close_approach": 1016812200000,
            "relative_velocity": {
                "kilometers_per_second": "10.3930388532",
                "kilometers_per_hour": "37414.9398715474",
                "miles_per_hour": "23248.1886107401"
            },
            "miss_distance": {
                "astronomical": "0.0162429223",
                "lunar": "6.3184967747",
                "kilometers": "2429906.578655501",
                "miles": "1509873.9341918738"
            },
            "orbiting_body": "Earth"
        },
        {
            "close_approach_date": "2030-07-23",
            "close_approach_date_full": "2030-Jul-23 17:54",
            "epoch_date_close_approach": 1911059640000,
            "relative_velocity": {
                "kilometers_per_second": "11.8324964445",
                "kilometers_per_hour": "42596.9872003411",
                "miles_per_hour": "26468.1112967897"
            },
            "miss_distance": {
                "astronomical": "0.0675322244",
                "lunar": "26.2700352916",
                "kilometers": "10102676.926602028",
                "miles": "6277512.3500748664"
            },
            "orbiting_body": "Earth"
        }
    ],
    "orbital_data": {
        "orbit_id": "12",
        "orbit_determination_date": "2017-04-06 09:15:20",
        "first_observation_date": "2002-03-12",
        "last_observation_date": "2002-03-22",
        "data_arc_in_days": 10,
        "observations_used": 43,
        "orbit_uncertainty": "8",
        "minimum_orbit_intersection": ".0126299",
        "jupiter_tisserand_invariant": "4.402",
        "epoch_osculation": "2452350.5",
        "eccentricity": ".4283007126427527",
        "semi_major_axis": "1.517972772247502",
        "inclination": "3.797745909913104",
        "ascending_node_longitude": "169.9199691564073",
        "orbital_period": "683.1159086469723",
        "perihelion_distance": ".8678239521216018",
        "perihelion_argument": "66.54242111063651",
        "aphelion_distance": "2.168121592373402",
        "perihelion_time": "2452397.828376106735",
        "mean_anomaly": "335.0580901677847",
        "mean_motion": ".5269969494826162",
        "equinox": "J2000",
        "orbit_class": {
            "orbit_class_type": "APO",
            "orbit_class_description": "Near-Earth asteroid orbits which cross the Earth’s orbit similar to that of 1862 Apollo",
            "orbit_class_range": "a (semi-major axis) > 1.0 AU; q (perihelion) < 1.017 AU"
        }
    },
    "is_sentry_object": false
}